{
  "type": "FeatureCollection",
  "features": [
    {
      "type": "Feature",
      "properties": {
        "norad_id": 40810,
        "name": "COSMOS 2251 DEB",
        "group": "cosmos-2251-debris",
        "lat": -49.48069318066002,
        "lon": -102.75862009223829,
        "alt_km": 691.9498823060867,
        "timestamp": "2025-12-21T16:47:55.137382+00:00",
        "meta_object_name": "COSMOS 2251 DEB",
        "meta_object_id": "1993-036BWP",
        "meta_epoch": "2025-12-20T21:37:57.745920",
        "meta_mean_motion": 14.58766963,
        "meta_eccentricity": 0.0018123,
        "meta_inclination": 74.0366,
        "meta_ra_of_asc_node": 59.1939,
        "meta_arg_of_pericenter": 210.007,
        "meta_mean_anomaly": 150.0058,
        "meta_ephemeris_type": 0,
        "meta_classification_type": "U",
        "meta_norad_cat_id": 40810,
        "meta_element_set_no": 999,
        "meta_rev_at_epoch": 61802,
        "meta_bstar": 0.00043512,
        "meta_mean_motion_dot": 2.008e-05,
        "meta_mean_motion_ddot": 0,
        "tle_line1": "1 40810U 93036BWP 25354.90136280  .00002008  00000+0  43512-3 0  9999",
        "tle_line2": "2 40810  74.0366  59.1939 0018123 210.0070 150.0058 14.58766963618023"
      },
      "geometry": {
        "type": "Point",
        "coordinates": [
          -102.75862009223829,
          -49.48069318066002
        ]
      }
    },
    {
      "type": "Feature",
      "properties": {
        "norad_id": 46271,
        "name": "COSMOS 2251 DEB",
        "group": "cosmos-2251-debris",
        "lat": -53.207800891034374,
        "lon": -96.15206940546466,
        "alt_km": 711.3633665447769,
        "timestamp": "2025-12-21T16:47:55.137392+00:00",
        "meta_object_name": "COSMOS 2251 DEB",
        "meta_object_id": "1993-036BWT",
        "meta_epoch": "2025-12-19T22:21:35.328960",
        "meta_mean_motion": 14.51444335,
        "meta_eccentricity": 0.003987,
        "meta_inclination": 74.0479,
        "meta_ra_of_asc_node": 64.6869,
        "meta_arg_of_pericenter": 184.8218,
        "meta_mean_anomaly": 175.2565,
        "meta_ephemeris_type": 0,
        "meta_classification_type": "U",
        "meta_norad_cat_id": 46271,
        "meta_element_set_no": 999,
        "meta_rev_at_epoch": 84746,
        "meta_bstar": 0.00020357,
        "meta_mean_motion_dot": 7.93e-06,
        "meta_mean_motion_ddot": 0,
        "tle_line1": "1 46271U 93036BWT 25353.93165890  .00000793  00000+0  20357-3 0  9998",
        "tle_line2": "2 46271  74.0479  64.6869 0039870 184.8218 175.2565 14.51444335847465"
      },
      "geometry": {
        "type": "Point",
        "coordinates": [
          -96.15206940546466,
          -53.207800891034374
        ]
      }
    },
    {
      "type": "Feature",
      "properties": {
        "norad_id": 46430,
        "name": "COSMOS 2251 DEB",
        "group": "cosmos-2251-debris",
        "lat": -56.98064873109271,
        "lon": -47.00469440214011,
        "alt_km": 672.3541045765687,
        "timestamp": "2025-12-21T16:47:55.137402+00:00",
        "meta_object_name": "COSMOS 2251 DEB",
        "meta_object_id": "1993-036BWU",
        "meta_epoch": "2025-12-19T07:10:40.968192",
        "meta_mean_motion": 14.51392906,
        "meta_eccentricity": 0.0103211,
        "meta_inclination": 73.9139,
        "meta_ra_of_asc_node": 343.9071,
        "meta_arg_of_pericenter": 263.0684,
        "meta_mean_anomaly": 95.8727,
        "meta_ephemeris_type": 0,
        "meta_classification_type": "U",
        "meta_norad_cat_id": 46430,
        "meta_element_set_no": 999,
        "meta_rev_at_epoch": 79778,
        "meta_bstar": 0.0013871,
        "meta_mean_motion_dot": 5.902e-05,
        "meta_mean_motion_ddot": 0,
        "tle_line1": "1 46430U 93036BWU 25353.29908528  .00005902  00000+0  13871-2 0  9996",
        "tle_line2": "2 46430  73.9139 343.9071 0103211 263.0684  95.8727 14.51392906797781"
      },
      "geometry": {
        "type": "Point",
        "coordinates": [
          -47.00469440214011,
          -56.98064873109271
        ]
      }
    },
    {
      "type": "Feature",
      "properties": {
        "norad_id": 46432,
        "name": "COSMOS 2251 DEB",
        "group": "cosmos-2251-debris",
        "lat": -25.624989934945273,
        "lon": 89.19922350048758,
        "alt_km": 1291.914253351907,
        "timestamp": "2025-12-21T16:47:55.137412+00:00",
        "meta_object_name": "COSMOS 2251 DEB",
        "meta_object_id": "1993-036BWW",
        "meta_epoch": "2025-12-21T01:41:30.909696",
        "meta_mean_motion": 13.36653515,
        "meta_eccentricity": 0.04742896,
        "meta_inclination": 73.8731,
        "meta_ra_of_asc_node": 98.1674,
        "meta_arg_of_pericenter": 214.4315,
        "meta_mean_anomaly": 326.3507,
        "meta_ephemeris_type": 0,
        "meta_classification_type": "U",
        "meta_norad_cat_id": 46432,
        "meta_element_set_no": 999,
        "meta_rev_at_epoch": 67077,
        "meta_bstar": 0.00079778608,
        "meta_mean_motion_dot": 7.65e-06,
        "meta_mean_motion_ddot": 0,
        "tle_line1": "1 46432U 93036BWW 25355.07049664  .00000765  00000+0  79779-3 0  9995",
        "tle_line2": "2 46432  73.8731  98.1674 0474289 214.4315 326.3507 13.36653515670770"
      },
      "geometry": {
        "type": "Point",
        "coordinates": [
          89.19922350048758,
          -25.624989934945273
        ]
      }
    },
    {
      "type": "Feature",
      "properties": {
        "norad_id": 47045,
        "name": "COSMOS 2251 DEB",
        "group": "cosmos-2251-debris",
        "lat": 62.966031243104176,
        "lon": 166.73734190600427,
        "alt_km": 775.4128083114247,
        "timestamp": "2025-12-21T16:47:55.137423+00:00",
        "meta_object_name": "COSMOS 2251 DEB",
        "meta_object_id": "1993-036BWZ",
        "meta_epoch": "2025-12-08T18:12:30.966336",
        "meta_mean_motion": 14.3889696,
        "meta_eccentricity": 0.00302024,
        "meta_inclination": 74.0568,
        "meta_ra_of_asc_node": 156.4972,
        "meta_arg_of_pericenter": 298.2595,
        "meta_mean_anomaly": 80.2379,
        "meta_ephemeris_type": 0,
        "meta_classification_type": "U",
        "meta_norad_cat_id": 47045,
        "meta_element_set_no": 999,
        "meta_rev_at_epoch": 7748,
        "meta_bstar": 0.00016053941,
        "meta_mean_motion_dot": 4.71e-06,
        "meta_mean_motion_ddot": 0,
        "tle_line1": "1 47045U 93036BWZ 25342.75869174  .00000471  00000+0  16054-3 0  9994",
        "tle_line2": "2 47045  74.0568 156.4972 0030202 298.2595  80.2379 14.38896960 77482"
      },
      "geometry": {
        "type": "Point",
        "coordinates": [
          166.73734190600427,
          62.966031243104176
        ]
      }
    },
    {
      "type": "Feature",
      "properties": {
        "norad_id": 47048,
        "name": "COSMOS 2251 DEB",
        "group": "cosmos-2251-debris",
        "lat": 61.07668583768985,
        "lon": -26.435204908511494,
        "alt_km": 666.7955971652636,
        "timestamp": "2025-12-21T16:47:55.137433+00:00",
        "meta_object_name": "COSMOS 2251 DEB",
        "meta_object_id": "1993-036BXC",
        "meta_epoch": "2025-12-19T13:47:33.177120",
        "meta_mean_motion": 14.52356803,
        "meta_eccentricity": 0.0132576,
        "meta_inclination": 73.9784,
        "meta_ra_of_asc_node": 306.2511,
        "meta_arg_of_pericenter": 132.3729,
        "meta_mean_anomaly": 347.2197,
        "meta_ephemeris_type": 0,
        "meta_classification_type": "U",
        "meta_norad_cat_id": 47048,
        "meta_element_set_no": 999,
        "meta_rev_at_epoch": 59789,
        "meta_bstar": 0.00066595,
        "meta_mean_motion_dot": 3.012e-05,
        "meta_mean_motion_ddot": 0,
        "tle_line1": "1 47048U 93036BXC 25353.57468955  .00003012  00000+0  66595-3 0  9990",
        "tle_line2": "2 47048  73.9784 306.2511 0132576 132.3729 347.2197 14.52356803597890"
      },
      "geometry": {
        "type": "Point",
        "coordinates": [
          -26.435204908511494,
          61.07668583768985
        ]
      }
    },
    {
      "type": "Feature",
      "properties": {
        "norad_id": 47051,
        "name": "COSMOS 2251 DEB",
        "group": "cosmos-2251-debris",
        "lat": 18.12381217778678,
        "lon": -16.403850412337487,
        "alt_km": 1126.676713815309,
        "timestamp": "2025-12-21T16:47:55.137443+00:00",
        "meta_object_name": "COSMOS 2251 DEB",
        "meta_object_id": "1993-036BXF",
        "meta_epoch": "2025-12-13T06:55:53.868288",
        "meta_mean_motion": 13.67117141,
        "meta_eccentricity": 0.03401033,
        "meta_inclination": 74.1001,
        "meta_ra_of_asc_node": 182.6908,
        "meta_arg_of_pericenter": 296.1774,
        "meta_mean_anomaly": 246.9893,
        "meta_ephemeris_type": 0,
        "meta_classification_type": "U",
        "meta_norad_cat_id": 47051,
        "meta_element_set_no": 999,
        "meta_rev_at_epoch": 59945,
        "meta_bstar": 0.0019326179,
        "meta_mean_motion_dot": 2.391e-05,
        "meta_mean_motion_ddot": 0,
        "tle_line1": "1 47051U 93036BXF 25347.28881792  .00002391  00000+0  19326-2 0  9991",
        "tle_line2": "2 47051  74.1001 182.6908 0340103 296.1774 246.9893 13.67117141599458"
      },
      "geometry": {
        "type": "Point",
        "coordinates": [
          -16.403850412337487,
          18.12381217778678
        ]
      }
    }
  ]
}